<?xml version="1.0" encoding="UTF-8"?>
<kml xmlns="http://www.opengis.net/kml/2.2">
  <Document>
    <name>Shell Eco-marathon 2025</name>
    <description/>
    <Style id="line-E60000-4000-nodesc-normal">
      <LineStyle>
        <color>ff0000e6</color>
        <width>4</width>
      </LineStyle>
      <BalloonStyle>
        <text><![CDATA[<h3>$[name]</h3>]]></text>
      </BalloonStyle>
    </Style>
    <Style id="line-E60000-4000-nodesc-highlight">
      <LineStyle>
        <color>ff0000e6</color>
        <width>6</width>
      </LineStyle>
      <BalloonStyle>
        <text><![CDATA[<h3>$[name]</h3>]]></text>
      </BalloonStyle>
    </Style>
    <StyleMap id="line-E60000-4000-nodesc">
      <Pair>
        <key>normal</key>
        <styleUrl>#line-E60000-4000-nodesc-normal</styleUrl>
      </Pair>
      <Pair>
        <key>highlight</key>
        <styleUrl>#line-E60000-4000-nodesc-highlight</styleUrl>
      </Pair>
    </StyleMap>
    <Folder>
      <name>Silesia Ring, Kamień Śląski, Poland</name>
      <Placemark>
        <name>Track</name>
        <styleUrl>#line-E60000-4000-nodesc</styleUrl>
        <LineString>
          <tessellate>1</tessellate>
          <coordinates>
            18.09611,50.52921,0
            18.096114,50.529207,0
            18.096126,50.529202,0
            18.096138,50.529197,0
            18.096149,50.529191,0
            18.096161,50.529186,0
            18.096172,50.529181,0
            18.096184,50.529176,0
            18.096195,50.529171,0
            18.096207,50.529166,0
            18.096219,50.529161,0
            18.09623,50.529156,0
            18.096242,50.52915,0
            18.096253,50.529145,0
            18.096265,50.52914,0
            18.096277,50.529135,0
            18.096288,50.52913,0
            18.0963,50.529125,0
            18.096311,50.52912,0
            18.096323,50.529115,0
            18.096335,50.52911,0
            18.096346,50.529104,0
            18.096358,50.529099,0
            18.096369,50.529094,0
            18.096381,50.529089,0
            18.096392,50.529084,0
            18.096404,50.529079,0
            18.096416,50.529074,0
            18.096427,50.529069,0
            18.096439,50.529063,0
            18.09645,50.529058,0
            18.096462,50.529053,0
            18.096474,50.529048,0
            18.096485,50.529043,0
            18.096497,50.529038,0
            18.096509,50.529033,0
            18.096521,50.529028,0
            18.096532,50.529023,0
            18.096544,50.529018,0
            18.096556,50.529013,0
            18.096568,50.529008,0
            18.096579,50.529003,0
            18.096591,50.528998,0
            18.096603,50.528993,0
            18.096614,50.528988,0
            18.096626,50.528983,0
            18.096638,50.528978,0
            18.09665,50.528973,0
            18.096661,50.528968,0
            18.096673,50.528963,0
            18.096685,50.528958,0
            18.096697,50.528953,0
            18.096708,50.528948,0
            18.09672,50.528943,0
            18.096732,50.528937,0
            18.096744,50.528932,0
            18.096755,50.528927,0
            18.096767,50.528922,0
            18.096779,50.528918,0
            18.09679,50.528913,0
            18.096802,50.528908,0
            18.096814,50.528903,0
            18.096826,50.528898,0
            18.096837,50.528893,0
            18.096849,50.528888,0
            18.096861,50.528883,0
            18.096873,50.528878,0
            18.096884,50.528873,0
            18.096896,50.528868,0
            18.096908,50.528863,0
            18.096919,50.528858,0
            18.096931,50.528853,0
            18.096943,50.528848,0
            18.096955,50.528843,0
            18.096966,50.528838,0
            18.096978,50.528833,0
            18.09699,50.528828,0
            18.097002,50.528823,0
            18.097014,50.528819,0
            18.097026,50.528814,0
            18.097038,50.528809,0
            18.09705,50.528804,0
            18.097062,50.528799,0
            18.097074,50.528794,0
            18.097086,50.52879,0
            18.097098,50.528785,0
            18.09711,50.52878,0
            18.097122,50.528775,0
            18.097134,50.52877,0
            18.097146,50.528766,0
            18.097158,50.528761,0
            18.097169,50.528755,0
            18.09718,50.52875,0
            18.097191,50.528744,0
            18.097203,50.528739,0
            18.097214,50.528733,0
            18.097225,50.528728,0
            18.097236,50.528722,0
            18.097247,50.528717,0
            18.097258,50.528711,0
            18.09727,50.528706,0
            18.097281,50.528701,0
            18.097292,50.528695,0
            18.0973,50.528687,0
            18.097309,50.52868,0
            18.097317,50.528673,0
            18.097326,50.528666,0
            18.097334,50.528659,0
            18.097343,50.528651,0
            18.097351,50.528644,0
            18.09736,50.528637,0
            18.097367,50.52863,0
            18.097374,50.528621,0
            18.09738,50.528613,0
            18.097386,50.528605,0
            18.097392,50.528597,0
            18.097399,50.528589,0
            18.097405,50.528581,0
            18.097411,50.528573,0
            18.097418,50.528565,0
            18.097423,50.528557,0
            18.097428,50.528548,0
            18.097433,50.52854,0
            18.097438,50.528531,0
            18.097443,50.528523,0
            18.097448,50.528514,0
            18.097453,50.528506,0
            18.097458,50.528498,0
            18.097463,50.528489,0
            18.097468,50.528481,0
            18.097473,50.528472,0
            18.097478,50.528464,0
            18.097481,50.528455,0
            18.097483,50.528446,0
            18.097485,50.528437,0
            18.097488,50.528428,0
            18.09749,50.528419,0
            18.097492,50.528411,0
            18.097494,50.528402,0
            18.097496,50.528393,0
            18.097499,50.528384,0
            18.097501,50.528375,0
            18.0975,50.528366,0
            18.097499,50.528357,0
            18.097498,50.528348,0
            18.097497,50.528339,0
            18.097496,50.52833,0
            18.097495,50.528321,0
            18.097494,50.528312,0
            18.097493,50.528303,0
            18.097491,50.528294,0
            18.097489,50.528285,0
            18.097486,50.528277,0
            18.097483,50.528268,0
            18.097481,50.528259,0
            18.097478,50.52825,0
            18.097476,50.528241,0
            18.097473,50.528233,0
            18.097471,50.528224,0
            18.097466,50.528215,0
            18.097459,50.528207,0
            18.097453,50.5282,0
            18.097446,50.528192,0
            18.09744,50.528184,0
            18.097433,50.528176,0
            18.097426,50.528168,0
            18.09742,50.52816,0
            18.097412,50.528152,0
            18.097405,50.528145,0
            18.097397,50.528137,0
            18.097389,50.528129,0
            18.097382,50.528122,0
            18.097374,50.528114,0
            18.097367,50.528107,0
            18.097359,50.528099,0
            18.097351,50.528092,0
            18.097341,50.528085,0
            18.097331,50.528079,0
            18.09732,50.528073,0
            18.09731,50.528067,0
            18.0973,50.52806,0
            18.09729,50.528054,0
            18.09728,50.528048,0
            18.09727,50.528042,0
            18.097259,50.528035,0
            18.097246,50.528033,0
            18.097232,50.52803,0
            18.097219,50.528028,0
            18.097205,50.528025,0
            18.097192,50.528023,0
            18.097178,50.52802,0
            18.097164,50.528018,0
            18.097151,50.528015,0
            18.097137,50.528013,0
            18.097124,50.52801,0
            18.09711,50.528011,0
            18.097095,50.528012,0
            18.097081,50.528012,0
            18.097067,50.528013,0
            18.097053,50.528013,0
            18.097039,50.528014,0
            18.097025,50.528015,0
            18.097011,50.528015,0
            18.096996,50.528016,0
            18.096983,50.528018,0
            18.096972,50.528023,0
            18.09696,50.528028,0
            18.096949,50.528034,0
            18.096937,50.528039,0
            18.096926,50.528044,0
            18.096915,50.52805,0
            18.096903,50.528055,0
            18.096892,50.52806,0
            18.09688,50.528066,0
            18.096869,50.528071,0
            18.096857,50.528076,0
            18.096846,50.528081,0
            18.096834,50.528086,0
            18.096822,50.528091,0
            18.09681,50.528096,0
            18.096798,50.528101,0
            18.096787,50.528106,0
            18.096775,50.528111,0
            18.096763,50.528116,0
            18.096751,50.52812,0
            18.096739,50.528125,0
            18.096727,50.52813,0
            18.096715,50.528135,0
            18.096704,50.52814,0
            18.096692,50.528145,0
            18.09668,50.528149,0
            18.096667,50.528153,0
            18.096654,50.528157,0
            18.096641,50.528161,0
            18.096628,50.528165,0
            18.096615,50.528169,0
            18.096602,50.528172,0
            18.096589,50.528176,0
            18.096577,50.52818,0
            18.096564,50.528184,0
            18.096551,50.528188,0
            18.096538,50.528192,0
            18.096525,50.528195,0
            18.096512,50.528199,0
            18.096499,50.528203,0
            18.096487,50.528207,0
            18.096474,50.528211,0
            18.096461,50.528215,0
            18.096448,50.528218,0
            18.096434,50.52822,0
            18.096421,50.528223,0
            18.096407,50.528225,0
            18.096393,50.528228,0
            18.09638,50.528231,0
            18.096366,50.528233,0
            18.096353,50.528236,0
            18.096339,50.528239,0
            18.096326,50.528241,0
            18.096312,50.528244,0
            18.096299,50.528246,0
            18.096285,50.528249,0
            18.096271,50.528252,0
            18.096258,50.528254,0
            18.096244,50.528257,0
            18.096231,50.528259,0
            18.096217,50.528262,0
            18.096204,50.528265,0
            18.09619,50.528267,0
            18.096176,50.528269,0
            18.096162,50.528271,0
            18.096149,50.528273,0
            18.096135,50.528275,0
            18.096121,50.528278,0
            18.096108,50.52828,0
            18.096094,50.528282,0
            18.09608,50.528284,0
            18.096066,50.528286,0
            18.096053,50.528288,0
            18.096039,50.52829,0
            18.096025,50.528292,0
            18.096012,50.528294,0
            18.095998,50.528297,0
            18.095984,50.528299,0
            18.095971,50.528301,0
            18.095957,50.528303,0
            18.095943,50.528305,0
            18.095929,50.528306,0
            18.095915,50.528307,0
            18.095901,50.528309,0
            18.095887,50.52831,0
            18.095873,50.528311,0
            18.095859,50.528313,0
            18.095845,50.528314,0
            18.095831,50.528315,0
            18.095817,50.528317,0
            18.095803,50.528318,0
            18.095789,50.528319,0
            18.095775,50.528321,0
            18.095761,50.528322,0
            18.095747,50.528323,0
            18.095733,50.528324,0
            18.095719,50.528326,0
            18.095705,50.528327,0
            18.095691,50.528328,0
            18.095677,50.52833,0
            18.095663,50.528331,0
            18.095649,50.528332,0
            18.095635,50.528333,0
            18.095621,50.528333,0
            18.095607,50.528334,0
            18.095593,50.528335,0
            18.095578,50.528335,0
            18.095564,50.528336,0
            18.09555,50.528337,0
            18.095536,50.528337,0
            18.095522,50.528338,0
            18.095508,50.528338,0
            18.095494,50.528339,0
            18.09548,50.52834,0
            18.095465,50.52834,0
            18.095451,50.528341,0
            18.095437,50.528342,0
            18.095423,50.528342,0
            18.095409,50.528343,0
            18.095395,50.528343,0
            18.095381,50.528344,0
            18.095367,50.528345,0
            18.095352,50.528345,0
            18.095338,50.528346,0
            18.095324,50.528347,0
            18.09531,50.528347,0
            18.095296,50.528348,0
            18.095282,50.528348,0
            18.095268,50.528349,0
            18.095253,50.52835,0
            18.095239,50.52835,0
            18.095225,50.528351,0
            18.095211,50.528352,0
            18.095197,50.528352,0
            18.095183,50.528353,0
            18.095169,50.528353,0
            18.095155,50.528354,0
            18.09514,50.528355,0
            18.095126,50.528355,0
            18.095112,50.528356,0
            18.095098,50.528357,0
            18.095084,50.528357,0
            18.09507,50.528358,0
            18.095056,50.528358,0
            18.095041,50.528358,0
            18.095027,50.528359,0
            18.095013,50.528359,0
            18.094999,50.52836,0
            18.094985,50.52836,0
            18.094971,50.528361,0
            18.094957,50.528361,0
            18.094943,50.528362,0
            18.094928,50.528362,0
            18.094914,50.528362,0
            18.0949,50.528363,0
            18.094886,50.528363,0
            18.094872,50.528364,0
            18.094858,50.528364,0
            18.094844,50.528365,0
            18.094829,50.528365,0
            18.094815,50.528366,0
            18.094801,50.528366,0
            18.094787,50.528367,0
            18.094773,50.528367,0
            18.094759,50.528367,0
            18.094745,50.528368,0
            18.094731,50.528368,0
            18.094716,50.528369,0
            18.094702,50.528369,0
            18.094688,50.52837,0
            18.094674,50.52837,0
            18.09466,50.528371,0
            18.094646,50.528371,0
            18.094632,50.528372,0
            18.094618,50.528372,0
            18.094603,50.528373,0
            18.094589,50.528373,0
            18.094575,50.528374,0
            18.094561,50.528374,0
            18.094547,50.528374,0
            18.094533,50.528374,0
            18.094519,50.528375,0
            18.094504,50.528375,0
            18.09449,50.528375,0
            18.094476,50.528375,0
            18.094462,50.528375,0
            18.094448,50.528375,0
            18.094434,50.528376,0
            18.09442,50.528376,0
            18.094406,50.528376,0
            18.094391,50.528376,0
            18.094377,50.528376,0
            18.094363,50.528377,0
            18.094349,50.528377,0
            18.094335,50.528377,0
            18.094321,50.528377,0
            18.094307,50.528377,0
            18.094292,50.528377,0
            18.094278,50.528378,0
            18.094264,50.528378,0
            18.09425,50.528378,0
            18.094236,50.528378,0
            18.094222,50.528379,0
            18.094208,50.528379,0
            18.094194,50.528379,0
            18.094179,50.528379,0
            18.094165,50.528379,0
            18.094151,50.52838,0
            18.094137,50.52838,0
            18.094123,50.52838,0
            18.094109,50.528381,0
            18.094095,50.528381,0
            18.09408,50.528382,0
            18.094066,50.528382,0
            18.094052,50.528383,0
            18.094038,50.528383,0
            18.094024,50.528384,0
            18.09401,50.528384,0
            18.093996,50.528385,0
            18.093982,50.528385,0
            18.093967,50.528386,0
            18.093953,50.528386,0
            18.093939,50.528387,0
            18.093925,50.528387,0
            18.093911,50.528388,0
            18.093897,50.52839,0
            18.093885,50.528394,0
            18.093873,50.528398,0
            18.09386,50.528403,0
            18.093848,50.528407,0
            18.093835,50.528411,0
            18.093823,50.528415,0
            18.09381,50.528419,0
            18.0938,50.528425,0
            18.093789,50.528431,0
            18.093779,50.528437,0
            18.093768,50.528443,0
            18.093758,50.528449,0
            18.093748,50.528455,0
            18.093737,50.528461,0
            18.093728,50.528468,0
            18.09372,50.528476,0
            18.093712,50.528483,0
            18.093704,50.528491,0
            18.093696,50.528498,0
            18.093688,50.528505,0
            18.09368,50.528513,0
            18.093673,50.52852,0
            18.093665,50.528528,0
            18.093657,50.528535,0
            18.093649,50.528543,0
            18.093641,50.52855,0
            18.093633,50.528558,0
            18.093624,50.528564,0
            18.093614,50.528571,0
            18.093604,50.528577,0
            18.093594,50.528584,0
            18.093585,50.52859,0
            18.093575,50.528597,0
            18.093565,50.528603,0
            18.093555,50.52861,0
            18.093546,50.528616,0
            18.093536,50.528623,0
            18.093526,50.528629,0
            18.093515,50.528635,0
            18.093502,50.528638,0
            18.093489,50.528641,0
            18.093475,50.528644,0
            18.093462,50.528647,0
            18.093449,50.52865,0
            18.093435,50.528653,0
            18.093422,50.528656,0
            18.093409,50.52866,0
            18.093396,50.528663,0
            18.093382,50.528666,0
            18.093369,50.528669,0
            18.093355,50.528671,0
            18.093341,50.528672,0
            18.093327,50.528673,0
            18.093313,50.528674,0
            18.093299,50.528675,0
            18.093285,50.528675,0
            18.09327,50.528676,0
            18.093256,50.528677,0
            18.093242,50.528678,0
            18.093228,50.528679,0
            18.093214,50.52868,0
            18.0932,50.528681,0
            18.093186,50.528682,0
            18.093172,50.528683,0
            18.093157,50.528684,0
            18.093143,50.528685,0
            18.093129,50.528686,0
            18.093115,50.528687,0
            18.093101,50.528687,0
            18.093087,50.528687,0
            18.093073,50.528687,0
            18.093059,50.528687,0
            18.093044,50.528687,0
            18.09303,50.528687,0
            18.093016,50.528687,0
            18.093002,50.528687,0
            18.092988,50.528687,0
            18.092974,50.528687,0
            18.09296,50.528687,0
            18.092946,50.528686,0
            18.092931,50.528686,0
            18.092917,50.528686,0
            18.092903,50.528686,0
            18.092889,50.528686,0
            18.092875,50.528686,0
            18.092861,50.528686,0
            18.092847,50.528686,0
            18.092833,50.528686,0
            18.092818,50.528686,0
            18.092804,50.528686,0
            18.09279,50.528685,0
            18.092776,50.528684,0
            18.092762,50.528683,0
            18.092748,50.528682,0
            18.092734,50.528681,0
            18.09272,50.52868,0
            18.092706,50.528679,0
            18.092692,50.528678,0
            18.092678,50.528677,0
            18.092664,50.528676,0
            18.09265,50.528675,0
            18.092636,50.528674,0
            18.092622,50.528673,0
            18.092608,50.528672,0
            18.092594,50.528671,0
            18.09258,50.52867,0
            18.092566,50.528669,0
            18.092552,50.528668,0
            18.092538,50.528667,0
            18.092524,50.528666,0
            18.09251,50.528665,0
            18.092496,50.528664,0
            18.092482,50.528663,0
            18.092468,50.528662,0
            18.092454,50.528661,0
            18.09244,50.52866,0
            18.092426,50.528659,0
            18.092412,50.528658,0
            18.092398,50.528657,0
            18.092384,50.528656,0
            18.09237,50.528655,0
            18.092356,50.528654,0
            18.092342,50.528653,0
            18.092328,50.528652,0
            18.092314,50.528651,0
            18.0923,50.52865,0
            18.092286,50.528649,0
            18.092272,50.528648,0
            18.092258,50.528647,0
            18.092244,50.528646,0
            18.09223,50.528645,0
            18.092216,50.528644,0
            18.092203,50.528643,0
            18.092189,50.528642,0
            18.092175,50.528641,0
            18.092161,50.52864,0
            18.092147,50.528639,0
            18.092133,50.528638,0
            18.092119,50.528637,0
            18.092105,50.528636,0
            18.092091,50.528635,0
            18.092077,50.528634,0
            18.092063,50.528633,0
            18.092049,50.528632,0
            18.092035,50.528631,0
            18.092021,50.52863,0
            18.092007,50.528629,0
            18.091993,50.528628,0
            18.091979,50.528627,0
            18.091965,50.528626,0
            18.091951,50.528625,0
            18.091937,50.528624,0
            18.091923,50.528623,0
            18.091909,50.528622,0
            18.091895,50.528621,0
            18.09188,50.52862,0
            18.091866,50.528619,0
            18.091852,50.528618,0
            18.091838,50.528618,0
            18.091824,50.528617,0
            18.09181,50.528616,0
            18.091796,50.528615,0
            18.091782,50.528614,0
            18.091767,50.528613,0
            18.091753,50.528613,0
            18.091739,50.528612,0
            18.091725,50.528611,0
            18.091711,50.52861,0
            18.091697,50.528609,0
            18.091683,50.528609,0
            18.091668,50.528608,0
            18.091654,50.528607,0
            18.09164,50.528606,0
            18.091626,50.528605,0
            18.091612,50.528605,0
            18.091598,50.528604,0
            18.091584,50.528603,0
            18.09157,50.528602,0
            18.091555,50.528601,0
            18.091541,50.5286,0
            18.091527,50.5286,0
            18.091513,50.528599,0
            18.091499,50.528598,0
            18.091485,50.528598,0
            18.091471,50.528597,0
            18.091456,50.528597,0
            18.091442,50.528597,0
            18.091428,50.528597,0
            18.091414,50.528597,0
            18.0914,50.528597,0
            18.091386,50.528597,0
            18.091372,50.528597,0
            18.091358,50.528597,0
            18.091343,50.528597,0
            18.091329,50.528597,0
            18.091315,50.528596,0
            18.091301,50.528596,0
            18.091287,50.528596,0
            18.091273,50.528596,0
            18.091259,50.528596,0
            18.091244,50.528596,0
            18.09123,50.528596,0
            18.091216,50.528596,0
            18.091202,50.528596,0
            18.091188,50.528596,0
            18.091174,50.528596,0
            18.09116,50.528596,0
            18.091146,50.528596,0
            18.091131,50.528596,0
            18.091117,50.528597,0
            18.091103,50.528599,0
            18.091089,50.5286,0
            18.091075,50.528602,0
            18.091061,50.528603,0
            18.091047,50.528605,0
            18.091034,50.528607,0
            18.09102,50.528608,0
            18.091006,50.52861,0
            18.090992,50.528611,0
            18.090978,50.528613,0
            18.090964,50.528615,0
            18.09095,50.528616,0
            18.090936,50.528619,0
            18.090923,50.528622,0
            18.09091,50.528625,0
            18.090897,50.528629,0
            18.090884,50.528632,0
            18.09087,50.528635,0
            18.090857,50.528638,0
            18.090844,50.528641,0
            18.09083,50.528645,0
            18.090817,50.528648,0
            18.090804,50.528651,0
            18.090791,50.528654,0
            18.090778,50.528658,0
            18.090765,50.528662,0
            18.090753,50.528667,0
            18.090741,50.528671,0
            18.090729,50.528676,0
            18.090716,50.52868,0
            18.090704,50.528685,0
            18.090692,50.528689,0
            18.090679,50.528694,0
            18.090667,50.528698,0
            18.090655,50.528702,0
            18.090642,50.528707,0
            18.090631,50.528712,0
            18.09062,50.528718,0
            18.090609,50.528723,0
            18.090597,50.528729,0
            18.090586,50.528734,0
            18.090575,50.52874,0
            18.090564,50.528745,0
            18.090553,50.528751,0
            18.090542,50.528756,0
            18.09053,50.528762,0
            18.090519,50.528767,0
            18.090509,50.528774,0
            18.0905,50.528781,0
            18.090492,50.528788,0
            18.090483,50.528795,0
            18.090474,50.528802,0
            18.090465,50.528809,0
            18.090456,50.528816,0
            18.090447,50.528823,0
            18.090439,50.52883,0
            18.09043,50.528837,0
            18.090422,50.528844,0
            18.090415,50.528852,0
            18.090407,50.52886,0
            18.0904,50.528867,0
            18.090392,50.528875,0
            18.090385,50.528883,0
            18.090378,50.52889,0
            18.09037,50.528898,0
            18.090365,50.528906,0
            18.090361,50.528915,0
            18.090357,50.528923,0
            18.090353,50.528932,0
            18.090349,50.528941,0
            18.090345,50.528949,0
            18.090341,50.528958,0
            18.090338,50.528966,0
            18.090335,50.528975,0
            18.090334,50.528984,0
            18.090333,50.528993,0
            18.090331,50.529002,0
            18.09033,50.529011,0
            18.090329,50.52902,0
            18.090328,50.529029,0
            18.090327,50.529038,0
            18.090326,50.529047,0
            18.090325,50.529056,0
            18.090326,50.529065,0
            18.090328,50.529074,0
            18.09033,50.529083,0
            18.090332,50.529092,0
            18.090334,50.529101,0
            18.090336,50.52911,0
            18.090338,50.529118,0
            18.09034,50.529127,0
            18.090342,50.529136,0
            18.090344,50.529145,0
            18.090346,50.529154,0
            18.090348,50.529163,0
            18.090352,50.529171,0
            18.090357,50.52918,0
            18.090362,50.529188,0
            18.090367,50.529197,0
            18.090373,50.529205,0
            18.090378,50.529213,0
            18.090383,50.529222,0
            18.090388,50.52923,0
            18.090393,50.529238,0
            18.090399,50.529247,0
            18.090404,50.529255,0
            18.090409,50.529263,0
            18.090414,50.529272,0
            18.09042,50.52928,0
            18.090425,50.529288,0
            18.09043,50.529297,0
            18.090435,50.529305,0
            18.090441,50.529314,0
            18.090446,50.529322,0
            18.090451,50.52933,0
            18.090457,50.529338,0
            18.090462,50.529347,0
            18.090468,50.529355,0
            18.090474,50.529363,0
            18.090479,50.529372,0
            18.090485,50.52938,0
            18.09049,50.529388,0
            18.090496,50.529396,0
            18.090501,50.529405,0
            18.090507,50.529413,0
            18.090513,50.529421,0
            18.090518,50.529429,0
            18.090524,50.529438,0
            18.090529,50.529446,0
            18.090535,50.529454,0
            18.090541,50.529462,0
            18.090546,50.529471,0
            18.090552,50.529479,0
            18.090557,50.529487,0
            18.090563,50.529496,0
            18.090569,50.529504,0
            18.090574,50.529512,0
            18.09058,50.52952,0
            18.090585,50.529529,0
            18.090591,50.529537,0
            18.090596,50.529545,0
            18.090602,50.529553,0
            18.090608,50.529562,0
            18.090613,50.52957,0
            18.090619,50.529578,0
            18.090624,50.529586,0
            18.09063,50.529595,0
            18.090636,50.529603,0
            18.090641,50.529611,0
            18.090647,50.529619,0
            18.090652,50.529628,0
            18.090658,50.529636,0
            18.090663,50.529644,0
            18.090668,50.529653,0
            18.090674,50.529661,0
            18.090679,50.52967,0
            18.090685,50.529678,0
            18.09069,50.529686,0
            18.090695,50.529695,0
            18.090701,50.529703,0
            18.090706,50.529711,0
            18.090711,50.529719,0
            18.090717,50.529728,0
            18.090722,50.529736,0
            18.090728,50.529744,0
            18.090733,50.529753,0
            18.090738,50.529761,0
            18.090744,50.529769,0
            18.090749,50.529777,0
            18.090754,50.529786,0
            18.09076,50.529794,0
            18.090765,50.529802,0
            18.090771,50.52981,0
            18.090776,50.529819,0
            18.090781,50.529827,0
            18.090787,50.529835,0
            18.090792,50.529844,0
            18.090797,50.529852,0
            18.090803,50.52986,0
            18.090808,50.529868,0
            18.090813,50.529877,0
            18.090819,50.529885,0
            18.090824,50.529893,0
            18.09083,50.529901,0
            18.090835,50.52991,0
            18.09084,50.529918,0
            18.090846,50.529926,0
            18.090851,50.529935,0
            18.090856,50.529943,0
            18.090862,50.529951,0
            18.090867,50.529959,0
            18.090873,50.529968,0
            18.090878,50.529976,0
            18.090883,50.529984,0
            18.090889,50.529993,0
            18.090894,50.530001,0
            18.090899,50.530009,0
            18.090905,50.530018,0
            18.09091,50.530026,0
            18.090916,50.530034,0
            18.090921,50.530043,0
            18.090926,50.530051,0
            18.090932,50.530059,0
            18.090937,50.530067,0
            18.090942,50.530076,0
            18.090948,50.530084,0
            18.090953,50.530092,0
            18.090958,50.5301,0
            18.090964,50.530109,0
            18.090969,50.530117,0
            18.090975,50.530125,0
            18.09098,50.530134,0
            18.090985,50.530142,0
            18.090991,50.53015,0
            18.090996,50.530159,0
            18.091001,50.530167,0
            18.091007,50.530176,0
            18.091012,50.530184,0
            18.091018,50.530192,0
            18.091023,50.530201,0
            18.091028,50.530209,0
            18.091034,50.530217,0
            18.091039,50.530226,0
            18.091044,50.530234,0
            18.091052,50.530242,0
            18.091059,50.530249,0
            18.091067,50.530257,0
            18.091074,50.530264,0
            18.091082,50.530272,0
            18.091089,50.53028,0
            18.091098,50.530287,0
            18.091108,50.530293,0
            18.091118,50.5303,0
            18.091128,50.530306,0
            18.091138,50.530312,0
            18.091149,50.530318,0
            18.091159,50.530325,0
            18.091171,50.530329,0
            18.091183,50.530334,0
            18.091195,50.530339,0
            18.091207,50.530344,0
            18.091219,50.530348,0
            18.091231,50.530353,0
            18.091243,50.530358,0
            18.091256,50.530361,0
            18.09127,50.530363,0
            18.091283,50.530366,0
            18.091297,50.530368,0
            18.09131,50.530371,0
            18.091324,50.530373,0
            18.091338,50.530376,0
            18.091352,50.530376,0
            18.091366,50.530376,0
            18.09138,50.530377,0
            18.091394,50.530377,0
            18.091408,50.530378,0
            18.091422,50.530378,0
            18.091437,50.530379,0
            18.091451,50.530379,0
            18.091465,50.530379,0
            18.091479,50.530378,0
            18.091492,50.530375,0
            18.091506,50.530373,0
            18.091519,50.53037,0
            18.091533,50.530368,0
            18.091546,50.530365,0
            18.09156,50.530363,0
            18.091573,50.53036,0
            18.091587,50.530358,0
            18.091601,50.530355,0
            18.091613,50.530351,0
            18.091626,50.530347,0
            18.091638,50.530343,0
            18.09165,50.530338,0
            18.091663,50.530334,0
            18.091675,50.53033,0
            18.091688,50.530325,0
            18.0917,50.530321,0
            18.091712,50.530316,0
            18.091725,50.530312,0
            18.091736,50.530307,0
            18.091747,50.530302,0
            18.091758,50.530296,0
            18.091769,50.530291,0
            18.091781,50.530285,0
            18.091792,50.530279,0
            18.091803,50.530274,0
            18.091814,50.530268,0
            18.091825,50.530263,0
            18.091836,50.530257,0
            18.091845,50.53025,0
            18.091855,50.530244,0
            18.091864,50.530237,0
            18.091873,50.53023,0
            18.091883,50.530223,0
            18.091892,50.530217,0
            18.091901,50.53021,0
            18.091911,50.530203,0
            18.09192,50.530196,0
            18.091929,50.530189,0
            18.091939,50.530183,0
            18.091948,50.530176,0
            18.091957,50.530169,0
            18.091967,50.530162,0
            18.091976,50.530155,0
            18.091985,50.530149,0
            18.091994,50.530142,0
            18.092004,50.530135,0
            18.092012,50.530128,0
            18.092021,50.530121,0
            18.09203,50.530114,0
            18.092038,50.530106,0
            18.092047,50.530099,0
            18.092055,50.530092,0
            18.092064,50.530085,0
            18.092073,50.530078,0
            18.092082,50.530071,0
            18.09209,50.530064,0
            18.092099,50.530057,0
            18.092108,50.53005,0
            18.092116,50.530043,0
            18.092125,50.530035,0
            18.092134,50.530028,0
            18.092142,50.530021,0
            18.092151,50.530014,0
            18.09216,50.530007,0
            18.092169,50.53,0
            18.092177,50.529993,0
            18.092186,50.529986,0
            18.092195,50.529979,0
            18.092204,50.529972,0
            18.092213,50.529965,0
            18.092222,50.529958,0
            18.092231,50.529951,0
            18.09224,50.529944,0
            18.092249,50.529937,0
            18.092258,50.529931,0
            18.092267,50.529924,0
            18.092276,50.529917,0
            18.092285,50.52991,0
            18.092294,50.529903,0
            18.092303,50.529896,0
            18.092312,50.529889,0
            18.092321,50.529882,0
            18.092329,50.529875,0
            18.092338,50.529868,0
            18.092347,50.529861,0
            18.092356,50.529854,0
            18.092364,50.529847,0
            18.092373,50.52984,0
            18.092381,50.529833,0
            18.09239,50.529825,0
            18.092398,50.529818,0
            18.092407,50.529811,0
            18.092415,50.529804,0
            18.092424,50.529797,0
            18.092432,50.529789,0
            18.09244,50.529782,0
            18.092449,50.529775,0
            18.092457,50.529768,0
            18.092466,50.529761,0
            18.092474,50.529753,0
            18.092483,50.529746,0
            18.092491,50.529739,0
            18.0925,50.529732,0
            18.092508,50.529725,0
            18.092517,50.529717,0
            18.092526,50.52971,0
            18.092534,50.529703,0
            18.092543,50.529696,0
            18.092551,50.529689,0
            18.09256,50.529681,0
            18.092569,50.529674,0
            18.092577,50.529667,0
            18.092586,50.52966,0
            18.092595,50.529653,0
            18.092603,50.529646,0
            18.092612,50.529639,0
            18.092621,50.529631,0
            18.092629,50.529624,0
            18.092638,50.529617,0
            18.092647,50.52961,0
            18.092655,50.529603,0
            18.092664,50.529596,0
            18.092673,50.529589,0
            18.092681,50.529582,0
            18.09269,50.529575,0
            18.092699,50.529568,0
            18.092707,50.52956,0
            18.092716,50.529553,0
            18.092725,50.529546,0
            18.092733,50.529539,0
            18.092742,50.529532,0
            18.092751,50.529525,0
            18.092759,50.529518,0
            18.092768,50.529511,0
            18.092776,50.529504,0
            18.092787,50.529498,0
            18.092798,50.529492,0
            18.092808,50.529486,0
            18.092819,50.52948,0
            18.09283,50.529474,0
            18.092841,50.529468,0
            18.092851,50.529462,0
            18.092862,50.529457,0
            18.092873,50.529451,0
            18.092884,50.529445,0
            18.092895,50.529439,0
            18.092906,50.529434,0
            18.092917,50.529428,0
            18.092928,50.529423,0
            18.092939,50.529417,0
            18.092951,50.529412,0
            18.092962,50.529406,0
            18.092973,50.529401,0
            18.092984,50.529396,0
            18.092996,50.529391,0
            18.093008,50.529386,0
            18.093021,50.529382,0
            18.093034,50.529378,0
            18.093046,50.529374,0
            18.093059,50.52937,0
            18.093071,50.529366,0
            18.093084,50.529362,0
            18.093097,50.529359,0
            18.09311,50.529356,0
            18.093124,50.529354,0
            18.093138,50.529351,0
            18.093151,50.529349,0
            18.093165,50.529346,0
            18.093179,50.529344,0
            18.093193,50.529344,0
            18.093207,50.529343,0
            18.093221,50.529343,0
            18.093235,50.529342,0
            18.093249,50.529341,0
            18.093263,50.529341,0
            18.093278,50.529341,0
            18.093292,50.529342,0
            18.093306,50.529343,0
            18.09332,50.529344,0
            18.093334,50.529344,0
            18.093348,50.529345,0
            18.093362,50.529346,0
            18.093376,50.529349,0
            18.093389,50.529352,0
            18.093403,50.529355,0
            18.093416,50.529358,0
            18.093429,50.529361,0
            18.093443,50.529363,0
            18.093456,50.529366,0
            18.093469,50.52937,0
            18.093481,50.529374,0
            18.093493,50.529379,0
            18.093505,50.529384,0
            18.093517,50.529389,0
            18.093529,50.529393,0
            18.093541,50.529398,0
            18.093553,50.529403,0
            18.093565,50.529408,0
            18.093575,50.529414,0
            18.093585,50.52942,0
            18.093595,50.529426,0
            18.093605,50.529433,0
            18.093615,50.529439,0
            18.093625,50.529445,0
            18.093636,50.529452,0
            18.093646,50.529458,0
            18.093656,50.529464,0
            18.093663,50.529472,0
            18.093671,50.529479,0
            18.093678,50.529487,0
            18.093686,50.529495,0
            18.093693,50.529502,0
            18.0937,50.52951,0
            18.093708,50.529518,0
            18.093715,50.529525,0
            18.093722,50.529533,0
            18.09373,50.52954,0
            18.093737,50.529548,0
            18.093745,50.529556,0
            18.093751,50.529564,0
            18.093757,50.529572,0
            18.093763,50.52958,0
            18.093769,50.529588,0
            18.093775,50.529596,0
            18.093781,50.529605,0
            18.093787,50.529613,0
            18.093793,50.529621,0
            18.093799,50.529629,0
            18.093805,50.529637,0
            18.093811,50.529646,0
            18.093818,50.529654,0
            18.093824,50.529662,0
            18.09383,50.52967,0
            18.093836,50.529678,0
            18.093842,50.529686,0
            18.093848,50.529694,0
            18.093855,50.529702,0
            18.093861,50.52971,0
            18.093868,50.529718,0
            18.093874,50.529726,0
            18.093881,50.529734,0
            18.093887,50.529742,0
            18.093894,50.52975,0
            18.0939,50.529758,0
            18.093907,50.529766,0
            18.093913,50.529774,0
            18.09392,50.529782,0
            18.093926,50.52979,0
            18.093932,50.529798,0
            18.093939,50.529806,0
            18.093945,50.529814,0
            18.093953,50.529822,0
            18.09396,50.529829,0
            18.093968,50.529837,0
            18.093975,50.529845,0
            18.093983,50.529852,0
            18.09399,50.52986,0
            18.093998,50.529868,0
            18.094005,50.529875,0
            18.094013,50.529883,0
            18.09402,50.529891,0
            18.09403,50.529897,0
            18.094041,50.529903,0
            18.094051,50.529909,0
            18.094061,50.529915,0
            18.094071,50.529922,0
            18.094082,50.529928,0
            18.094094,50.529931,0
            18.094107,50.529935,0
            18.09412,50.529939,0
            18.094133,50.529943,0
            18.094145,50.529947,0
            18.094158,50.529951,0
            18.094171,50.529955,0
            18.094184,50.529955,0
            18.094198,50.529955,0
            18.094213,50.529954,0
            18.094227,50.529953,0
            18.094241,50.529952,0
            18.094255,50.529951,0
            18.094269,50.52995,0
            18.094282,50.529948,0
            18.094295,50.529944,0
            18.094308,50.529941,0
            18.094321,50.529937,0
            18.094334,50.529934,0
            18.094347,50.52993,0
            18.09436,50.529927,0
            18.094373,50.529923,0
            18.094386,50.52992,0
            18.094399,50.529916,0
            18.094412,50.529912,0
            18.094424,50.529908,0
            18.094436,50.529903,0
            18.094449,50.529899,0
            18.094461,50.529895,0
            18.094474,50.52989,0
            18.094486,50.529886,0
            18.094499,50.529882,0
            18.094511,50.529878,0
            18.094524,50.529873,0
            18.094536,50.529869,0
            18.094548,50.529865,0
            18.094561,50.529861,0
            18.094573,50.529856,0
            18.094586,50.529852,0
            18.094598,50.529848,0
            18.094611,50.529844,0
            18.094623,50.529839,0
            18.094634,50.529834,0
            18.094646,50.529829,0
            18.094658,50.529824,0
            18.09467,50.529819,0
            18.094682,50.529815,0
            18.094694,50.52981,0
            18.094706,50.529805,0
            18.094718,50.5298,0
            18.094729,50.529795,0
            18.094741,50.52979,0
            18.094753,50.529785,0
            18.094765,50.529781,0
            18.094777,50.529776,0
            18.094789,50.529771,0
            18.094801,50.529766,0
            18.094813,50.529761,0
            18.094824,50.529756,0
            18.094836,50.529751,0
            18.094848,50.529746,0
            18.09486,50.529741,0
            18.094872,50.529737,0
            18.094884,50.529732,0
            18.094896,50.529727,0
            18.094907,50.529722,0
            18.094919,50.529717,0
            18.094931,50.529712,0
            18.094943,50.529707,0
            18.094955,50.529702,0
            18.094967,50.529697,0
            18.094979,50.529692,0
            18.094991,50.529687,0
            18.095002,50.529682,0
            18.095014,50.529677,0
            18.095026,50.529672,0
            18.095038,50.529668,0
            18.09505,50.529663,0
            18.095062,50.529658,0
            18.095074,50.529653,0
            18.095086,50.529648,0
            18.095097,50.529643,0
            18.095109,50.529638,0
            18.095121,50.529633,0
            18.095133,50.529628,0
            18.095145,50.529623,0
            18.095157,50.529618,0
            18.095169,50.529613,0
            18.095181,50.529608,0
            18.095192,50.529603,0
            18.095204,50.529599,0
            18.095216,50.529594,0
            18.095228,50.529589,0
            18.09524,50.529584,0
            18.095252,50.529579,0
            18.095264,50.529574,0
            18.095275,50.529569,0
            18.095287,50.529564,0
            18.095299,50.529559,0
            18.095311,50.529554,0
            18.095323,50.52955,0
            18.095335,50.529545,0
            18.095347,50.52954,0
            18.095359,50.529535,0
            18.09537,50.52953,0
            18.095382,50.529525,0
            18.095394,50.52952,0
            18.095406,50.529515,0
            18.095418,50.52951,0
            18.09543,50.529505,0
            18.095442,50.5295,0
            18.095454,50.529495,0
            18.095465,50.52949,0
            18.095477,50.529485,0
            18.095489,50.52948,0
            18.095501,50.529475,0
            18.095513,50.52947,0
            18.095525,50.529466,0
            18.095537,50.529461,0
            18.095549,50.529456,0
            18.09556,50.529451,0
            18.095572,50.529446,0
            18.095584,50.529441,0
            18.095596,50.529436,0
            18.095608,50.529431,0
            18.09562,50.529426,0
            18.095632,50.529421,0
            18.095643,50.529416,0
            18.095655,50.529411,0
            18.095667,50.529406,0
            18.095679,50.529401,0
            18.095691,50.529396,0
            18.095702,50.529391,0
            18.095714,50.529386,0
            18.095726,50.529381,0
            18.095737,50.529376,0
            18.095749,50.529371,0
            18.095761,50.529366,0
            18.095772,50.52936,0
            18.095784,50.529355,0
            18.095795,50.52935,0
            18.095807,50.529345,0
            18.095819,50.52934,0
            18.09583,50.529334,0
            18.095842,50.529329,0
            18.095853,50.529324,0
            18.095865,50.529319,0
            18.095877,50.529314,0
            18.095888,50.529308,0
            18.0959,50.529303,0
            18.095911,50.529298,0
            18.095923,50.529293,0
            18.095934,50.529287,0
            18.095946,50.529282,0
            18.095958,50.529277,0
            18.095969,50.529272,0
            18.095981,50.529267,0
            18.095992,50.529261,0
            18.096004,50.529256,0
            18.096016,50.529251,0
            18.096027,50.529246,0
            18.096039,50.529241,0
            18.09605,50.529235,0
            18.096062,50.52923,0
            18.096074,50.529225,0
            18.096085,50.52922,0
            18.096097,50.529215,0
          </coordinates>
        </LineString>
      </Placemark>
    </Folder>
  </Document>
</kml>
